COSMOS 2242             
1 22626U 93024A   26084.94992059  .00002115  00000+0  18305-3 0  9991
2 22626  82.5160 251.1585 0014961 248.8587 111.1037 14.96615770782829
SL-16 R/B               
1 22803U 93059B   26085.13406120 -.00000095  00000+0 -23196-4 0  9999
2 22803  70.9925 336.4513 0017557 192.7342 167.3341 14.17235430681861
ARIANE 40 R/B           
1 22830U 93061H   26085.10870029  .00000215  00000+0  94599-4 0  9999
2 22830  98.4886 153.6700 0009865 231.0065 129.0241 14.32869473696453
COSMOS 2278             
1 23087U 94023A   26085.14703360 -.00000252  00000+0 -10683-3 0  9994
2 23087  71.0524 140.6690 0009061 347.0848  13.0041 14.14376492647138
SL-16 R/B               
1 23088U 94023B   26085.11543609  .00000319  00000+0  18920-3 0  9994
2 23088  71.0010  36.3891 0005454 270.0134  90.0363 14.15013235648416
SL-16 R/B               
1 23343U 94074B   26085.09415306  .00000449  00000+0  66751-4 0  9993
2 23343  97.7085 115.2460 0007091 156.3595 267.8429 14.79425769689671
SL-16 R/B               
1 23405U 94077B   26085.09063157  .00000045  00000+0  47698-4 0  9999
2 23405  70.9839 317.9867 0002113 198.2700 161.8347 14.15568999618559
ARIANE 40+ R/B          
1 23561U 95021B   26085.20951348  .00000294  00000+0  10774-3 0  9993
2 23561  98.4468 156.4660 0007972  93.8562 284.8129 14.39784026621629
SL-16 R/B               
1 23705U 95058B   26085.09840736 -.00000215  00000+0 -85755-4 0  9995
2 23705  71.0210 145.8080 0010118  95.3575 264.8703 14.15500141570173
SL-16 R/B               
1 24298U 96051B   26085.17157183  .00000086  00000+0  72926-4 0  9993
2 24298  70.7590 140.3551 0013719 121.6585 238.5875 14.12420252523970
ORBVIEW 2 (SEASTAR)     
1 24883U 97037A   26085.07661376  .00000287  00000+0  11597-3 0  9990
2 24883  98.8597 249.8250 0002544  37.2481 322.8879 14.35505988510826
SL-16 R/B               
1 25400U 98043G   26084.79897976  .00000084  00000+0  54032-4 0  9996
2 25400  98.8281  38.2793 0009361 333.8013  26.2692 14.26053406441288
