CCSDS_OMM_VERS = 2.0
CREATION_DATE  = 
ORIGINATOR     = 

OBJECT_NAME    = COSMOS 2242
OBJECT_ID      = 1993-024A
CENTER_NAME    = EARTH
REF_FRAME      = TEME
TIME_SYSTEM    = UTC
MEAN_ELEMENT_THEORY = SGP/SGP4

EPOCH          = 2026-03-25T22:47:53.138976
MEAN_MOTION    = 14.96615770
ECCENTRICITY   = .0014961
INCLINATION    = 82.5160
RA_OF_ASC_NODE = 251.1585
ARG_OF_PERICENTER = 248.8587
MEAN_ANOMALY   = 111.1037

EPHEMERIS_TYPE = 0
CLASSIFICATION_TYPE = U
NORAD_CAT_ID   = 22626
ELEMENT_SET_NO = 999
REV_AT_EPOCH   = 78282
BSTAR          = .18305E-3
MEAN_MOTION_DOT = .2115E-4
MEAN_MOTION_DDOT = 0

CCSDS_OMM_VERS = 2.0
CREATION_DATE  = 
ORIGINATOR     = 

OBJECT_NAME    = SL-16 R/B
OBJECT_ID      = 1993-059B
CENTER_NAME    = EARTH
REF_FRAME      = TEME
TIME_SYSTEM    = UTC
MEAN_ELEMENT_THEORY = SGP/SGP4

EPOCH          = 2026-03-26T03:13:02.887680
MEAN_MOTION    = 14.17235430
ECCENTRICITY   = .0017557
INCLINATION    = 70.9925
RA_OF_ASC_NODE = 336.4513
ARG_OF_PERICENTER = 192.7342
MEAN_ANOMALY   = 167.3341

EPHEMERIS_TYPE = 0
CLASSIFICATION_TYPE = U
NORAD_CAT_ID   = 22803
ELEMENT_SET_NO = 999
REV_AT_EPOCH   = 68186
BSTAR          = -.23196E-4
MEAN_MOTION_DOT = -.95E-6
MEAN_MOTION_DDOT = 0

CCSDS_OMM_VERS = 2.0
CREATION_DATE  = 
ORIGINATOR     = 

OBJECT_NAME    = ARIANE 40 R/B
OBJECT_ID      = 1993-061H
CENTER_NAME    = EARTH
REF_FRAME      = TEME
TIME_SYSTEM    = UTC
MEAN_ELEMENT_THEORY = SGP/SGP4

EPOCH          = 2026-03-26T02:36:31.705056
MEAN_MOTION    = 14.32869473
ECCENTRICITY   = .0009865
INCLINATION    = 98.4886
RA_OF_ASC_NODE = 153.6700
ARG_OF_PERICENTER = 231.0065
MEAN_ANOMALY   = 129.0241

EPHEMERIS_TYPE = 0
CLASSIFICATION_TYPE = U
NORAD_CAT_ID   = 22830
ELEMENT_SET_NO = 999
REV_AT_EPOCH   = 69645
BSTAR          = .94599E-4
MEAN_MOTION_DOT = .215E-5
MEAN_MOTION_DDOT = 0

CCSDS_OMM_VERS = 2.0
CREATION_DATE  = 
ORIGINATOR     = 

OBJECT_NAME    = COSMOS 2278
OBJECT_ID      = 1994-023A
CENTER_NAME    = EARTH
REF_FRAME      = TEME
TIME_SYSTEM    = UTC
MEAN_ELEMENT_THEORY = SGP/SGP4

EPOCH          = 2026-03-26T03:31:43.703040
MEAN_MOTION    = 14.14376492
ECCENTRICITY   = .0009061
INCLINATION    = 71.0524
RA_OF_ASC_NODE = 140.6690
ARG_OF_PERICENTER = 347.0848
MEAN_ANOMALY   = 13.0041

EPHEMERIS_TYPE = 0
CLASSIFICATION_TYPE = U
NORAD_CAT_ID   = 23087
ELEMENT_SET_NO = 999
REV_AT_EPOCH   = 64713
BSTAR          = -.10683E-3
MEAN_MOTION_DOT = -.252E-5
MEAN_MOTION_DDOT = 0

CCSDS_OMM_VERS = 2.0
CREATION_DATE  = 
ORIGINATOR     = 

OBJECT_NAME    = SL-16 R/B
OBJECT_ID      = 1994-023B
CENTER_NAME    = EARTH
REF_FRAME      = TEME
TIME_SYSTEM    = UTC
MEAN_ELEMENT_THEORY = SGP/SGP4

EPOCH          = 2026-03-26T02:46:13.678176
MEAN_MOTION    = 14.15013235
ECCENTRICITY   = .0005454
INCLINATION    = 71.0010
RA_OF_ASC_NODE = 36.3891
ARG_OF_PERICENTER = 270.0134
MEAN_ANOMALY   = 90.0363

EPHEMERIS_TYPE = 0
CLASSIFICATION_TYPE = U
NORAD_CAT_ID   = 23088
ELEMENT_SET_NO = 999
REV_AT_EPOCH   = 64841
BSTAR          = .1892E-3
MEAN_MOTION_DOT = .319E-5
MEAN_MOTION_DDOT = 0

CCSDS_OMM_VERS = 2.0
CREATION_DATE  = 
ORIGINATOR     = 

OBJECT_NAME    = SL-16 R/B
OBJECT_ID      = 1994-074B
CENTER_NAME    = EARTH
REF_FRAME      = TEME
TIME_SYSTEM    = UTC
MEAN_ELEMENT_THEORY = SGP/SGP4

EPOCH          = 2026-03-26T02:15:34.824384
MEAN_MOTION    = 14.79425769
ECCENTRICITY   = .0007091
INCLINATION    = 97.7085
RA_OF_ASC_NODE = 115.2460
ARG_OF_PERICENTER = 156.3595
MEAN_ANOMALY   = 267.8429

EPHEMERIS_TYPE = 0
CLASSIFICATION_TYPE = U
NORAD_CAT_ID   = 23343
ELEMENT_SET_NO = 999
REV_AT_EPOCH   = 68967
BSTAR          = .66751E-4
MEAN_MOTION_DOT = .449E-5
MEAN_MOTION_DDOT = 0

CCSDS_OMM_VERS = 2.0
CREATION_DATE  = 
ORIGINATOR     = 

OBJECT_NAME    = SL-16 R/B
OBJECT_ID      = 1994-077B
CENTER_NAME    = EARTH
REF_FRAME      = TEME
TIME_SYSTEM    = UTC
MEAN_ELEMENT_THEORY = SGP/SGP4

EPOCH          = 2026-03-26T02:10:30.567648
MEAN_MOTION    = 14.15568999
ECCENTRICITY   = .0002113
INCLINATION    = 70.9839
RA_OF_ASC_NODE = 317.9867
ARG_OF_PERICENTER = 198.2700
MEAN_ANOMALY   = 161.8347

EPHEMERIS_TYPE = 0
CLASSIFICATION_TYPE = U
NORAD_CAT_ID   = 23405
ELEMENT_SET_NO = 999
REV_AT_EPOCH   = 61855
BSTAR          = .47698E-4
MEAN_MOTION_DOT = .45E-6
MEAN_MOTION_DDOT = 0

CCSDS_OMM_VERS = 2.0
CREATION_DATE  = 
ORIGINATOR     = 

OBJECT_NAME    = ARIANE 40+ R/B
OBJECT_ID      = 1995-021B
CENTER_NAME    = EARTH
REF_FRAME      = TEME
TIME_SYSTEM    = UTC
MEAN_ELEMENT_THEORY = SGP/SGP4

EPOCH          = 2026-03-26T05:01:41.964672
MEAN_MOTION    = 14.39784026
ECCENTRICITY   = .0007972
INCLINATION    = 98.4468
RA_OF_ASC_NODE = 156.4660
ARG_OF_PERICENTER = 93.8562
MEAN_ANOMALY   = 284.8129

EPHEMERIS_TYPE = 0
CLASSIFICATION_TYPE = U
NORAD_CAT_ID   = 23561
ELEMENT_SET_NO = 999
REV_AT_EPOCH   = 62162
BSTAR          = .10774E-3
MEAN_MOTION_DOT = .294E-5
MEAN_MOTION_DDOT = 0

CCSDS_OMM_VERS = 2.0
CREATION_DATE  = 
ORIGINATOR     = 

OBJECT_NAME    = SL-16 R/B
OBJECT_ID      = 1995-058B
CENTER_NAME    = EARTH
REF_FRAME      = TEME
TIME_SYSTEM    = UTC
MEAN_ELEMENT_THEORY = SGP/SGP4

EPOCH          = 2026-03-26T02:21:42.395904
MEAN_MOTION    = 14.15500141
ECCENTRICITY   = .0010118
INCLINATION    = 71.0210
RA_OF_ASC_NODE = 145.8080
ARG_OF_PERICENTER = 95.3575
MEAN_ANOMALY   = 264.8703

EPHEMERIS_TYPE = 0
CLASSIFICATION_TYPE = U
NORAD_CAT_ID   = 23705
ELEMENT_SET_NO = 999
REV_AT_EPOCH   = 57017
BSTAR          = -.85755E-4
MEAN_MOTION_DOT = -.215E-5
MEAN_MOTION_DDOT = 0

CCSDS_OMM_VERS = 2.0
CREATION_DATE  = 
ORIGINATOR     = 

OBJECT_NAME    = SL-16 R/B
OBJECT_ID      = 1996-051B
CENTER_NAME    = EARTH
REF_FRAME      = TEME
TIME_SYSTEM    = UTC
MEAN_ELEMENT_THEORY = SGP/SGP4

EPOCH          = 2026-03-26T04:07:03.806112
MEAN_MOTION    = 14.12420252
ECCENTRICITY   = .0013719
INCLINATION    = 70.7590
RA_OF_ASC_NODE = 140.3551
ARG_OF_PERICENTER = 121.6585
MEAN_ANOMALY   = 238.5875

EPHEMERIS_TYPE = 0
CLASSIFICATION_TYPE = U
NORAD_CAT_ID   = 24298
ELEMENT_SET_NO = 999
REV_AT_EPOCH   = 52397
BSTAR          = .72926E-4
MEAN_MOTION_DOT = .86E-6
MEAN_MOTION_DDOT = 0

CCSDS_OMM_VERS = 2.0
CREATION_DATE  = 
ORIGINATOR     = 

OBJECT_NAME    = ORBVIEW 2 (SEASTAR)
OBJECT_ID      = 1997-037A
CENTER_NAME    = EARTH
REF_FRAME      = TEME
TIME_SYSTEM    = UTC
MEAN_ELEMENT_THEORY = SGP/SGP4

EPOCH          = 2026-03-26T01:50:19.428864
MEAN_MOTION    = 14.35505988
ECCENTRICITY   = .0002544
INCLINATION    = 98.8597
RA_OF_ASC_NODE = 249.8250
ARG_OF_PERICENTER = 37.2481
MEAN_ANOMALY   = 322.8879

EPHEMERIS_TYPE = 0
CLASSIFICATION_TYPE = U
NORAD_CAT_ID   = 24883
ELEMENT_SET_NO = 999
REV_AT_EPOCH   = 51082
BSTAR          = .11597E-3
MEAN_MOTION_DOT = .287E-5
MEAN_MOTION_DDOT = 0

CCSDS_OMM_VERS = 2.0
CREATION_DATE  = 
ORIGINATOR     = 

OBJECT_NAME    = SL-16 R/B
OBJECT_ID      = 1998-043G
CENTER_NAME    = EARTH
REF_FRAME      = TEME
TIME_SYSTEM    = UTC
MEAN_ELEMENT_THEORY = SGP/SGP4

EPOCH          = 2026-03-25T19:10:31.851264
MEAN_MOTION    = 14.26053406
ECCENTRICITY   = .0009361
INCLINATION    = 98.8281
RA_OF_ASC_NODE = 38.2793
ARG_OF_PERICENTER = 333.8013
MEAN_ANOMALY   = 26.2692

EPHEMERIS_TYPE = 0
CLASSIFICATION_TYPE = U
NORAD_CAT_ID   = 25400
ELEMENT_SET_NO = 999
REV_AT_EPOCH   = 44128
BSTAR          = .54032E-4
MEAN_MOTION_DOT = .84E-6
MEAN_MOTION_DDOT = 0

